NORAD_CAT_ID,OBJECT_NAME,OBJECT_TYPE,EPOCH,MEAN_MOTION,ECCENTRICITY,INCLINATION,RA_OF_ASC_NODE,ARG_OF_PERICENTER,MEAN_ANOMALY,BSTAR,MEAN_MOTION_DOT,MEAN_MOTION_DDOT,TLE_LINE0,TLE_LINE1,TLE_LINE2,SEMIMAJOR_AXIS,PERIOD,APOGEE,PERIGEE,DECAYED
52380.0,STARLINK-3793,PAYLOAD,2022-09-03 22:00:00,15.08861206,0.0001985,53.2132,177.7132,52.44300000000001,331.7511,-0.0010182,-0.00016466,0.0,0 STARLINK-3793,1 52380U 22045BB  22246.91667824 -.00016466  00000-0 -10182-2 0  9999,2 52380  53.2132 177.7132 0001985  52.4430 331.7511 15.08861206  1307,6917.816,95.436,541.054,538.307,0.0
52380.0,STARLINK-3793,PAYLOAD,2022-09-04 14:00:01,15.08861717,0.0001886999999999,53.2127,174.7197,51.4955,356.0091,-0.00066942,-0.00010933,0.0,0 STARLINK-3793,1 52380U 22045BB  22247.58335648 -.00010933  00000-0 -66942-3 0  9998,2 52380  53.2127 174.7197 0001887  51.4955 356.0091 15.08861717 22506,6917.814,95.436,540.984,538.374,0.0
52380.0,STARLINK-3793,PAYLOAD,2022-09-04 20:00:01,15.08869718,0.0001821,53.2128,173.5974,53.3329,272.8172,-0.0017346,-0.00027811,0.0,0 STARLINK-3793,1 52380U 22045BB  22247.83334491 -.00027811  00000-0 -17346-2 0  9997,2 52380  53.2128 173.5974 0001821  53.3329 272.8172 15.08869718  1300,6917.79,95.436,540.914,538.395,0.0
52380.0,STARLINK-3793,PAYLOAD,2022-09-05 14:00:01,15.08840671,0.0001678,53.2124,170.2303,47.6876,34.5953,-0.00086619,-0.00014047,0.0,0 STARLINK-3793,1 52380U 22045BB  22248.58334491 -.00014047  00000-0 -86619-3 0  9997,2 52380  53.2124 170.2303 0001678  47.6876  34.5953 15.08840671  1306,6917.878000000002,95.438,540.904,538.5830000000002,0.0
52380.0,STARLINK-3793,PAYLOAD,2022-09-05 22:00:00,15.08845068,0.000169,53.2125,168.7344,45.7212,48.1395,-0.0044499,-0.00070427,0.0,0 STARLINK-3793,1 52380U 22045BB  22248.91667824 -.00070427  00000-0 -44499-2 0  9996,2 52380  53.2125 168.7344 0001690  45.7212  48.1395 15.08845068 22704,6917.865,95.437,540.899,538.561,0.0
52380.0,STARLINK-3793,PAYLOAD,2022-09-06 12:00:00,15.08802566,0.0001686999999999,53.2126,166.1154,41.4544,342.6285,-0.00029677,-5.003e-05,0.0,0 STARLINK-3793,1 52380U 22045BB  22249.50001157 -.00005003  00000-0 -29677-3 0  9993,2 52380  53.2126 166.1154 0001687  41.4544 342.6285 15.08802566 22798,6917.995,95.44,541.0269999999998,538.693,0.0
52380.0,STARLINK-3793,PAYLOAD,2022-09-06 14:00:01,15.08783425,0.0001621,53.2126,165.741,42.3419,74.6341,0.0024873,0.00039458,0.0,0 STARLINK-3793,1 52380U 22045BB  22249.58334491  .00039458  00000-0  24873-2 0  9992,2 52380  53.2126 165.7410 0001621  42.3419  74.6341 15.08783425  1308,6918.053000000001,95.441,541.04,538.797,0.0
52380.0,STARLINK-3793,PAYLOAD,2022-09-06 22:00:00,15.08825999,0.0001751999999999,53.2128,164.2453,44.0231,84.4922,-0.001258,-0.00020246,0.0,0 STARLINK-3793,1 52380U 22045BB  22249.91667824 -.00020246  00000-0 -12580-2 0  9997,2 52380  53.2128 164.2453 0001752  44.0231  84.4922 15.08825999  1304,6917.9230000000025,95.438,541.0,538.576,0.0
52380.0,STARLINK-3793,PAYLOAD,2022-09-07 04:00:00,15.08797946,0.0001898,53.213,163.1242,40.4677,6.7318,0.0030424,0.00048409,0.0,0 STARLINK-3793,1 52380U 22045BB  22250.16667824  .00048409  00000-0  30424-2 0  9992,2 52380  53.2130 163.1242 0001898  40.4677   6.7318 15.08797946 22899,6918.009,95.44,541.187,538.561,0.0
52380.0,STARLINK-3793,PAYLOAD,2022-09-07 14:00:01,15.08810722,0.0001738,53.2132,161.2518,43.666,108.0008,0.0027515,0.00043739,0.0,0 STARLINK-3793,1 52380U 22045BB  22250.58334491  .00043739  00000-0  27515-2 0  9997,2 52380  53.2132 161.2518 0001738  43.6660 108.0008 15.08810722  1309,6917.97,95.439,541.0369999999998,538.633,0.0
52380.0,STARLINK-3793,PAYLOAD,2022-09-07 22:00:00,15.08852739,0.0001874,53.2135,159.7562,44.7087,118.5321,-0.0012058,-0.00019434,0.0,0 STARLINK-3793,1 52380U 22045BB  22250.91667824 -.00019434  00000-0 -12058-2 0  9996,2 52380  53.2135 159.7562 0001874  44.7087 118.5321 15.08852739  1307,6917.840999999999,95.437,541.003,538.41,0.0
52380.0,STARLINK-3793,PAYLOAD,2022-09-08 14:00:01,15.08818443,0.0001764,53.2139,156.7624,42.865,143.5977,0.0024595,0.00039049,0.0,0 STARLINK-3793,1 52380U 22045BB  22251.58334491  .00039049  00000-0  24595-2 0  9992,2 52380  53.2139 156.7624 0001764  42.8650 143.5977 15.08818443  1309,6917.946,95.439,541.0319999999998,538.591,0.0
52380.0,STARLINK-3793,PAYLOAD,2022-09-08 22:00:00,15.08859107,0.0001883,53.2142,155.267,43.0871,154.9632,-0.00075383,-0.00012272,0.0,0 STARLINK-3793,1 52380U 22045BB  22251.91667824 -.00012272  00000-0 -75383-3 0  9991,2 52380  53.2142 155.2670 0001883  43.0871 154.9632 15.08859107  1304,6917.821999999999,95.436,540.99,538.384,0.0
52380.0,STARLINK-3793,PAYLOAD,2022-09-09 14:00:01,15.08816548,0.0001716,53.2143,152.2731,41.5503,179.7317,0.0034103,0.00054371,0.0,0 STARLINK-3793,1 52380U 22045BB  22252.58334491  .00054371  00000-0  34103-2 0  9994,2 52380  53.2143 152.2731 0001716  41.5503 179.7317 15.08816548  1307,6917.9519999999975,95.439,541.004,538.63,0.0
52380.0,STARLINK-3793,PAYLOAD,2022-09-09 22:00:00,15.08874133,0.0001792,53.2144,150.7779,40.3196,192.55,-0.0037071999999999,-0.00058862,0.0,0 STARLINK-3793,1 52380U 22045BB  22252.91667824 -.00058862  00000-0 -37072-2 0  9999,2 52380  53.2144 150.7779 0001792  40.3196 192.5500 15.08874133  1303,6917.776,95.435,540.881,538.401,0.0
52380.0,STARLINK-3793,PAYLOAD,2022-09-10 06:00:02,15.08830252,0.0001873,53.2141,149.2819,36.4076,208.1283,0.00097769,0.00015302,0.0,0 STARLINK-3793,1 52380U 22045BB  22253.25002315  .00015302  00000-0  97769-3 0  9995,2 52380  53.2141 149.2819 0001873  36.4076 208.1283 15.08830252 23356,6917.91,95.438,541.071,538.479,0.0
52380.0,STARLINK-3793,PAYLOAD,2022-09-10 14:00:01,15.08817751,0.0001721999999999,53.2141,147.7838,42.8717,213.2035,0.0009948,0.0001557,0.0,0 STARLINK-3793,1 52380U 22045BB  22253.58334491  .00015570  00000-0  99480-3 0  9993,2 52380  53.2141 147.7838 0001722  42.8717 213.2035 15.08817751  1308,6917.948,95.439,541.005,538.622,0.0
52380.0,STARLINK-3793,PAYLOAD,2022-09-10 22:00:00,15.08834699,0.0001875999999999,53.214,146.2887,42.8148,224.8362,-0.00073065,-0.00011896,0.0,0 STARLINK-3793,1 52380U 22045BB  22253.91667824 -.00011896  00000-0 -73065-3 0  9999,2 52380  53.2140 146.2887 0001876  42.8148 224.8362 15.08834699  1304,6917.897,95.438,541.059,538.464,0.0
52380.0,STARLINK-3793,PAYLOAD,2022-09-11 14:00:01,15.08835646,0.0001794,53.2135,143.2944,47.3428,243.5001,0.001591,0.00025121,0.0,0 STARLINK-3793,1 52380U 22045BB  22254.58334491  .00025121  00000-0  15910-2 0  9992,2 52380  53.2135 143.2944 0001794  47.3428 243.5001 15.08835646  1300,6917.894,95.438,541.0,538.518,0.0
52380.0,STARLINK-3793,PAYLOAD,2022-09-11 22:00:00,15.08842602,0.0001973,53.2133,141.7994,46.5639,255.8854,-0.00086955,-0.00014102,0.0,0 STARLINK-3793,1 52380U 22045BB  22254.91667824 -.00014102  00000-0 -86955-3 0  9995,2 52380  53.2133 141.7994 0001973  46.5639 255.8854 15.08842602  1302,6917.871999999999,95.437,541.102,538.373,0.0
52380.0,STARLINK-3793,PAYLOAD,2022-09-12 06:00:00,15.08865335,0.000198,53.2127,140.3029,43.7396,270.2969,-0.002905,-0.00046258,0.0,0 STARLINK-3793,1 52380U 22045BB  22255.25001157 -.00046258  00000-0 -29050-2 0  9993,2 52380  53.2127 140.3029 0001980  43.7396 270.2969 15.08865335 23665,6917.803000000001,95.436,541.038,538.298,0.0
52380.0,STARLINK-3793,PAYLOAD,2022-09-12 14:00:01,15.08805814,0.0001774,53.2126,138.8049,49.1596,276.4918,0.0032387,0.00051585,0.0,0 STARLINK-3793,1 52380U 22045BB  22255.58334491  .00051585  00000-0  32387-2 0  9993,2 52380  53.2126 138.8049 0001774  49.1596 276.4918 15.08805814  1306,6917.985,95.44,541.077,538.623,0.0
52380.0,STARLINK-3793,PAYLOAD,2022-09-12 22:00:00,15.08842843,0.0001915,53.2127,137.31,45.9294,291.2988,-0.00039817,-6.620000000000001e-05,0.0,0 STARLINK-3793,1 52380U 22045BB  22255.91667824 -.00006620  00000-0 -39817-3 0  9997,2 52380  53.2127 137.3100 0001915  45.9294 291.2988 15.08842843 23764,6917.871999999999,95.437,541.061,538.4119999999998,0.0
52380.0,STARLINK-3793,PAYLOAD,2022-09-13 14:00:01,15.08820164,0.0001723,53.212,134.3152,47.7804,312.6474,0.002973,0.0004732,0.0,0 STARLINK-3793,1 52380U 22045BB  22256.58334491  .00047320  00000-0  29730-2 0  9994,2 52380  53.2120 134.3152 0001723  47.7804 312.6474 15.08820164  1312,6917.941,95.439,540.998,538.614,0.0
52380.0,STARLINK-3793,PAYLOAD,2022-09-13 22:00:00,15.08841922,0.0001872,53.2121,132.8203,43.3575,328.6595,-0.002097,-0.00033509,0.0,0 STARLINK-3793,1 52380U 22045BB  22256.91667824 -.00033509  00000-0 -20970-2 0  9993,2 52380  53.2121 132.8203 0001872  43.3575 328.6595 15.08841922  1300,6917.875,95.437,541.035,538.444,0.0
52380.0,STARLINK-3793,PAYLOAD,2022-09-14 06:00:00,15.08840187,0.0001874,53.2118,131.3234,39.8539,343.7361,-0.00079192,-0.0001286999999999,0.0,0 STARLINK-3793,1 52380U 22045BB  22257.25001157 -.00012870  00000-0 -79192-3 0  9991,2 52380  53.2118 131.3234 0001874  39.8539 343.7361 15.08840187 23963,6917.88,95.438,541.0409999999998,538.448,0.0
52380.0,STARLINK-3793,PAYLOAD,2022-09-14 14:00:01,15.08817461,0.0001745,53.212,129.8254,45.9294,349.2512,0.0030161,0.00048011,0.0,0 STARLINK-3793,1 52380U 22045BB  22257.58334491  .00048011  00000-0  30161-2 0  9993,2 52380  53.2120 129.8254 0001745  45.9294 349.2512 15.08817461  1305,6917.949000000001,95.439,541.021,538.607,0.0
52380.0,STARLINK-3793,PAYLOAD,2022-09-14 22:00:00,15.08850887,0.0001919,53.2121,128.3305,41.483,5.2887,-0.002872,-0.00045721,0.0,0 STARLINK-3793,1 52380U 22045BB  22257.91667824 -.00045721  00000-0 -28720-2 0  9994,2 52380  53.2121 128.3305 0001919  41.4830   5.2887 15.08850887  1300,6917.847,95.437,541.04,538.385,0.0
52380.0,STARLINK-3793,PAYLOAD,2022-09-15 06:00:00,15.08844182,0.0001884,53.2122,126.8336,38.3589,19.9982,-0.00090696,-0.00014695,0.0,0 STARLINK-3793,1 52380U 22045BB  22258.25001157 -.00014695  00000-0 -90696-3 0  9991,2 52380  53.2122 126.8336 0001884  38.3589  19.9982 15.08844182 24118,6917.868,95.437,541.036,538.429,0.0
